{"type": "FeatureCollection", "features": [ {"type": "Feature", "properties": {"norad_id": 66052, "name": "HRC MONOBLOCK CAMERA", "group": "stations", "lat": -31.821807888007076, "lon": -58.50975930900157, "alt_km": 405.0044805792113, "timestamp": "2025-12-22T15:43:47.719730+00:00", "meta": {"OBJECT_NAME": "HRC MONOBLOCK CAMERA", "OBJECT_ID": "1998-067XR", "EPOCH": "2025-12-21T17:10:53.034240", "MEAN_MOTION": 15.54728821, "ECCENTRICITY": 0.00023026, "INCLINATION": 51.6309, "RA_OF_ASC_NODE": 96.7319, "ARG_OF_PERICENTER": 227.1692, "MEAN_ANOMALY": 132.9105, "EPHEMERIS_TYPE": 0, "CLASSIFICATION_TYPE": "U", "NORAD_CAT_ID": 66052, "ELEMENT_SET_NO": 999, "REV_AT_EPOCH": 1023, "BSTAR": 0.00048538169, "MEAN_MOTION_DOT": 0.00032497, "MEAN_MOTION_DDOT": 0}, "tle": {"line1": "1 66052U 98067XR  25355.71589160  .00032497  00000+0  48538-3 0  9991", "line2": "2 66052  51.6309  96.7319 0002302 227.1692 132.9105 15.54728821 10236"}}, "geometry": {"type": "Point", "coordinates": [-58.50975930900157, -31.821807888007076]}}, {"type": "Feature", "properties": {"norad_id": 66174, "name": "HTV-X1", "group": "stations", "lat": -41.62480076265647, "lon": 48.6246327435615, "alt_km": 419.73103390338747, "timestamp": "2025-12-22T15:43:47.719741+00:00", "meta": {"OBJECT_NAME": "HTV-X1", "OBJECT_ID": "2025-241A", "EPOCH": "2025-12-21T22:57:18.016992", "MEAN_MOTION": 15.49714244, "ECCENTRICITY": 0.00031643, "INCLINATION": 51.6324, "RA_OF_ASC_NODE": 96.8363, "ARG_OF_PERICENTER": 283.4657, "MEAN_ANOMALY": 76.5979, "EPHEMERIS_TYPE": 0, "CLASSIFICATION_TYPE": "U", "NORAD_CAT_ID": 66174, "ELEMENT_SET_NO": 999, "REV_AT_EPOCH": 51, "BSTAR": 0.00020227117, "MEAN_MOTION_DOT": 0.0001099, "MEAN_MOTION_DDOT": 0}, "tle": {"line1": "1 66174U 25241A   25355.95645853  .00010990  00000+0  20227-3 0  9997", "line2": "2 66174  51.6324  96.8363 0003164 283.4657  76.5979 15.49714244   511"}}, "geometry": {"type": "Point", "coordinates": [48.6246327435615, -41.62480076265647]}}, {"type": "Feature", "properties": {"norad_id": 66515, "name": "SZ-21 MODULE", "group": "stations", "lat": 39.42506713222855, "lon": 66.99676066883715, "alt_km": 375.70199243109437, "timestamp": "2025-12-22T15:43:47.719751+00:00", "meta": {"OBJECT_NAME": "SZ-21 MODULE", "OBJECT_ID": "2025-246C", "EPOCH": "2025-12-22T06:04:32.826144", "MEAN_MOTION": 15.62957896, "ECCENTRICITY": 0.00052091, "INCLINATION": 41.4776, "RA_OF_ASC_NODE": 317.9924, "ARG_OF_PERICENTER": 311.1717, "MEAN_ANOMALY": 48.8673, "EPHEMERIS_TYPE": 0, "CLASSIFICATION_TYPE": "U", "NORAD_CAT_ID": 66515, "ELEMENT_SET_NO": 999, "REV_AT_EPOCH": 593, "BSTAR": 0.00031521047, "MEAN_MOTION_DOT": 0.00029176, "MEAN_MOTION_DDOT": 0}, "tle": {"line1": "1 66515U 25246C   25356.25315771  .00029176  00000+0  31521-3 0  9993", "line2": "2 66515  41.4776 317.9924 0005209 311.1717  48.8673 15.62957896  5937"}}, "geometry": {"type": "Point", "coordinates": [66.99676066883715, 39.42506713222855]}}, {"type": "Feature", "properties": {"norad_id": 66645, "name": "SHENZHOU-22", "group": "stations", "lat": 40.36292559830805, "lon": 30.73891676234456, "alt_km": 378.20099715886226, "timestamp": "2025-12-22T15:43:47.719761+00:00", "meta": {"OBJECT_NAME": "SHENZHOU-22", "OBJECT_ID": "2025-272A", "EPOCH": "2025-12-22T04:38:19.938912", "MEAN_MOTION": 15.59558261, "ECCENTRICITY": 0.00077972, "INCLINATION": 41.4687, "RA_OF_ASC_NODE": 319.2988, "ARG_OF_PERICENTER": 114.0639, "MEAN_ANOMALY": 246.1016, "EPHEMERIS_TYPE": 0, "CLASSIFICATION_TYPE": "U", "NORAD_CAT_ID": 66645, "ELEMENT_SET_NO": 999, "REV_AT_EPOCH": 26550, "BSTAR": 0.00024063854, "MEAN_MOTION_DOT": 0.00019415, "MEAN_MOTION_DDOT": 0}, "tle": {"line1": "1 66645U 25272A   25356.19328633  .00019415  00000+0  24064-3 0  9999", "line2": "2 66645  41.4687 319.2988 0007797 114.0639 246.1016 15.59558261265508"}}, "geometry": {"type": "Point", "coordinates": [30.73891676234456, 40.36292559830805]}}, {"type": "Feature", "properties": {"norad_id": 66664, "name": "SOYUZ-MS 28", "group": "stations", "lat": -41.624799684553736, "lon": 48.62463489410521, "alt_km": 419.73103387871834, "timestamp": "2025-12-22T15:43:47.719771+00:00", "meta": {"OBJECT_NAME": "SOYUZ-MS 28", "OBJECT_ID": "2025-275A", "EPOCH": "2025-12-21T22:57:18.016992", "MEAN_MOTION": 15.49714244, "ECCENTRICITY": 0.00031643, "INCLINATION": 51.6324, "RA_OF_ASC_NODE": 96.8363, "ARG_OF_PERICENTER": 283.4657, "MEAN_ANOMALY": 76.5979, "EPHEMERIS_TYPE": 0, "CLASSIFICATION_TYPE": "U", "NORAD_CAT_ID": 66664, "ELEMENT_SET_NO": 999, "REV_AT_EPOCH": 128, "BSTAR": 0.00020227117, "MEAN_MOTION_DOT": 0.0001099, "MEAN_MOTION_DDOT": 0}, "tle": {"line1": "1 66664U 25275A   25355.95645853  .00010990  00000+0  20227-3 0  9998", "line2": "2 66664  51.6324  96.8363 0003164 283.4657  76.5979 15.49714244  1280"}}, "geometry": {"type": "Point", "coordinates": [48.62463489410521, -41.624799684553736]}}, {"type": "Feature", "properties": {"norad_id": 66906, "name": "1998-067XS", "group": "stations", "lat": 11.029599229745898, "lon": 102.10607559094855, "alt_km": 413.950467761716, "timestamp": "2025-12-22T15:43:47.719781+00:00", "meta": {"OBJECT_NAME": "1998-067XS", "OBJECT_ID": "1998-067XS", "EPOCH": "2025-12-21T16:28:28.031520", "MEAN_MOTION": 15.51020739, "ECCENTRICITY": 0.00029292, "INCLINATION": 51.6318, "RA_OF_ASC_NODE": 98.0337, "ARG_OF_PERICENTER": 244.8838, "MEAN_ANOMALY": 115.1848, "EPHEMERIS_TYPE": 0, "CLASSIFICATION_TYPE": "U", "NORAD_CAT_ID": 66906, "ELEMENT_SET_NO": 999, "REV_AT_EPOCH": 300, "BSTAR": 0.00043070009, "MEAN_MOTION_DOT": 0.00025109, "MEAN_MOTION_DDOT": 0}, "tle": {"line1": "1 66906U 98067XS  25355.68643555  .00025109  00000+0  43070-3 0  9992", "line2": "2 66906  51.6318  98.0337 0002929 244.8838 115.1848 15.51020739  3006"}}, "geometry": {"type": "Point", "coordinates": [102.10607559094855, 11.029599229745898]}}, {"type": "Feature", "properties": {"norad_id": 66907, "name": "1998-067XT", "group": "stations", "lat": 48.58537204297449, "lon": 157.01972244887168, "alt_km": 404.67015849350446, "timestamp": "2025-12-22T15:43:47.719791+00:00", "meta": {"OBJECT_NAME": "1998-067XT", "OBJECT_ID": "1998-067XT", "EPOCH": "2025-12-21T16:14:38.831712", "MEAN_MOTION": 15.52487606, "ECCENTRICITY": 0.00038339, "INCLINATION": 51.6315, "RA_OF_ASC_NODE": 97.969, "ARG_OF_PERICENTER": 280.3147, "MEAN_ANOMALY": 79.741, "EPHEMERIS_TYPE": 0, "CLASSIFICATION_TYPE": "U", "NORAD_CAT_ID": 66907, "ELEMENT_SET_NO": 999, "REV_AT_EPOCH": 300, "BSTAR": 0.00094407034, "MEAN_MOTION_DOT": 0.00058863, "MEAN_MOTION_DDOT": 0}, "tle": {"line1": "1 66907U 98067XT  25355.67683833  .00058863  00000+0  94407-3 0  9998", "line2": "2 66907  51.6315  97.9690 0003833 280.3147  79.7410 15.52487606  3008"}}, "geometry": {"type": "Point", "coordinates": [157.01972244887168, 48.58537204297449]}}, {"type": "Feature", "properties": {"norad_id": 66908, "name": "1998-067XU", "group": "stations", "lat": 50.11744314082105, "lon": 164.55377801168663, "alt_km": 404.4286499325344, "timestamp": "2025-12-22T15:43:47.719801+00:00", "meta": {"OBJECT_NAME": "1998-067XU", "OBJECT_ID": "1998-067XU", "EPOCH": "2025-12-21T00:46:29.963136", "MEAN_MOTION": 15.52510982, "ECCENTRICITY": 0.00039042, "INCLINATION": 51.6311, "RA_OF_ASC_NODE": 101.1653, "ARG_OF_PERICENTER": 276.2494, "MEAN_ANOMALY": 83.8051, "EPHEMERIS_TYPE": 0, "CLASSIFICATION_TYPE": "U", "NORAD_CAT_ID": 66908, "ELEMENT_SET_NO": 999, "REV_AT_EPOCH": 290, "BSTAR": 0.00080289362, "MEAN_MOTION_DOT": 0.00049977, "MEAN_MOTION_DDOT": 0}, "tle": {"line1": "1 66908U 98067XU  25355.03229124  .00049977  00000+0  80289-3 0  9997", "line2": "2 66908  51.6311 101.1653 0003904 276.2494  83.8051 15.52510982  2909"}}, "geometry": {"type": "Point", "coordinates": [164.55377801168663, 50.11744314082105]}}, {"type": "Feature", "properties": {"norad_id": 66909, "name": "SILVERSAT", "group": "stations", "lat": 51.385825478771075, "lon": 175.81500804023426, "alt_km": 403.476468612148, "timestamp": "2025-12-22T15:43:47.719811+00:00", "meta": {"OBJECT_NAME": "SILVERSAT", "OBJECT_ID": "1998-067XV", "EPOCH": "2025-12-22T06:05:47.770368", "MEAN_MOTION": 15.52855909, "ECCENTRICITY": 0.00038121, "INCLINATION": 51.6306, "RA_OF_ASC_NODE": 95.0749, "ARG_OF_PERICENTER": 288.8858, "MEAN_ANOMALY": 71.1718, "EPHEMERIS_TYPE": 0, "CLASSIFICATION_TYPE": "U", "NORAD_CAT_ID": 66909, "ELEMENT_SET_NO": 999, "REV_AT_EPOCH": 309, "BSTAR": 0.0012357429, "MEAN_MOTION_DOT": 0.00078426, "MEAN_MOTION_DDOT": 0}, "tle": {"line1": "1 66909U 98067XV  25356.25402512  .00078426  00000+0  12357-2 0  9998", "line2": "2 66909  51.6306  95.0749 0003812 288.8858  71.1718 15.52855909  3094"}}, "geometry": {"type": "Point", "coordinates": [175.81500804023426, 51.385825478771075]}}, {"type": "Feature", "properties": {"norad_id": 66910, "name": "1998-067XW", "group": "stations", "lat": 51.30945916010638, "lon": -168.54560020961412, "alt_km": 403.98493159437385, "timestamp": "2025-12-22T15:43:47.719826+00:00", "meta": {"OBJECT_NAME": "1998-067XW", "OBJECT_ID": "1998-067XW", "EPOCH": "2025-12-21T16:09:10.415808", "MEAN_MOTION": 15.52740161, "ECCENTRICITY": 0.00040642, "INCLINATION": 51.6307, "RA_OF_ASC_NODE": 97.9437, "ARG_OF_PERICENTER": 256.0944, "MEAN_ANOMALY": 103.9594, "EPHEMERIS_TYPE": 0, "CLASSIFICATION_TYPE": "U", "NORAD_CAT_ID": 66910, "ELEMENT_SET_NO": 999, "REV_AT_EPOCH": 300, "BSTAR": 0.00090790144, "MEAN_MOTION_DOT": 0.000571, "MEAN_MOTION_DDOT": 0}, "tle": {"line1": "1 66910U 98067XW  25355.67303722  .00057100  00000+0  90790-3 0  9992", "line2": "2 66910  51.6307  97.9437 0004064 256.0944 103.9594 15.52740161  3005"}}, "geometry": {"type": "Point", "coordinates": [-168.54560020961412, 51.30945916010638]}}]}